{"type": "FeatureCollection", "features": [ {"type": "Feature", "properties": {"norad_id": 34681, "name": "COSMOS 2251 DEB", "group": "cosmos-2251-debris", "lat": -55.930322082489674, "lon": -76.49512182571084, "alt_km": 619.7759977175592, "timestamp": "2025-12-03T13:52:09.961747+00:00", "meta": {"OBJECT_NAME": "COSMOS 2251 DEB", "OBJECT_ID": "1993-036YB", "EPOCH": "2025-12-03T08:20:25.476576", "MEAN_MOTION": 14.82827794, "ECCENTRICITY": 0.00257134, "INCLINATION": 74.0622, "RA_OF_ASC_NODE": 308.9556, "ARG_OF_PERICENTER": 7.2115, "MEAN_ANOMALY": 144.3612, "EPHEMERIS_TYPE": 0, "CLASSIFICATION_TYPE": "U", "NORAD_CAT_ID": 34681, "ELEMENT_SET_NO": 999, "REV_AT_EPOCH": 89131, "BSTAR": 0.002020051, "MEAN_MOTION_DOT": 0.00016451, "MEAN_MOTION_DDOT": 0}, "tle": {"line1": "1 34681U 93036YB  25337.34751709  .00016451  00000+0  20201-2 0  9992", "line2": "2 34681  74.0622 308.9556 0025713   7.2115 144.3612 14.82827794891310"}}, "geometry": {"type": "Point", "coordinates": [-76.49512182571084, -55.930322082489674]}}, {"type": "Feature", "properties": {"norad_id": 34682, "name": "COSMOS 2251 DEB", "group": "cosmos-2251-debris", "lat": 45.623247056991765, "lon": -96.57349450221146, "alt_km": 695.5193243195408, "timestamp": "2025-12-03T13:52:09.961757+00:00", "meta": {"OBJECT_NAME": "COSMOS 2251 DEB", "OBJECT_ID": "1993-036YC", "EPOCH": "2025-12-03T08:28:16.036896", "MEAN_MOTION": 14.58771685, "ECCENTRICITY": 0.00187447, "INCLINATION": 74.0388, "RA_OF_ASC_NODE": 100.8621, "ARG_OF_PERICENTER": 234.1513, "MEAN_ANOMALY": 157.2088, "EPHEMERIS_TYPE": 0, "CLASSIFICATION_TYPE": "U", "NORAD_CAT_ID": 34682, "ELEMENT_SET_NO": 999, "REV_AT_EPOCH": 88549, "BSTAR": 0.0013546209, "MEAN_MOTION_DOT": 6.321e-05, "MEAN_MOTION_DDOT": 0}, "tle": {"line1": "1 34682U 93036YC  25337.35296339  .00006321  00000+0  13546-2 0  9996", "line2": "2 34682  74.0388 100.8621 0018744 234.1513 157.2088 14.58771685885493"}}, "geometry": {"type": "Point", "coordinates": [-96.57349450221146, 45.623247056991765]}}, {"type": "Feature", "properties": {"norad_id": 34683, "name": "COSMOS 2251 DEB", "group": "cosmos-2251-debris", "lat": 70.20456874031518, "lon": -122.84236498801815, "alt_km": 679.5033721072305, "timestamp": "2025-12-03T13:52:09.961767+00:00", "meta": {"OBJECT_NAME": "COSMOS 2251 DEB", "OBJECT_ID": "1993-036YD", "EPOCH": "2025-12-03T08:37:36.802272", "MEAN_MOTION": 14.64258206, "ECCENTRICITY": 0.00188872, "INCLINATION": 74.0283, "RA_OF_ASC_NODE": 110.2995, "ARG_OF_PERICENTER": 225.1262, "MEAN_ANOMALY": 165.8783, "EPHEMERIS_TYPE": 0, "CLASSIFICATION_TYPE": "U", "NORAD_CAT_ID": 34683, "ELEMENT_SET_NO": 999, "REV_AT_EPOCH": 88211, "BSTAR": 0.0019412125, "MEAN_MOTION_DOT": 0.00010244, "MEAN_MOTION_DDOT": 0}, "tle": {"line1": "1 34683U 93036YD  25337.35945373  .00010244  00000+0  19412-2 0  9993", "line2": "2 34683  74.0283 110.2995 0018887 225.1262 165.8783 14.64258206882115"}}, "geometry": {"type": "Point", "coordinates": [-122.84236498801815, 70.20456874031518]}}, {"type": "Feature", "properties": {"norad_id": 34685, "name": "COSMOS 2251 DEB", "group": "cosmos-2251-debris", "lat": 55.15268331019464, "lon": -38.08809734509962, "alt_km": 704.8098525257456, "timestamp": "2025-12-03T13:52:09.961777+00:00", "meta": {"OBJECT_NAME": "COSMOS 2251 DEB", "OBJECT_ID": "1993-036YF", "EPOCH": "2025-12-02T23:03:11.928672", "MEAN_MOTION": 14.57362176, "ECCENTRICITY": 0.00144266, "INCLINATION": 74.029, "RA_OF_ASC_NODE": 167.3734, "ARG_OF_PERICENTER": 271.3416, "MEAN_ANOMALY": 212.528, "EPHEMERIS_TYPE": 0, "CLASSIFICATION_TYPE": "U", "NORAD_CAT_ID": 34685, "ELEMENT_SET_NO": 999, "REV_AT_EPOCH": 88389, "BSTAR": 0.001243281, "MEAN_MOTION_DOT": 5.617e-05, "MEAN_MOTION_DDOT": 0}, "tle": {"line1": "1 34685U 93036YF  25336.96055473  .00005617  00000+0  12433-2 0  9998", "line2": "2 34685  74.0290 167.3734 0014426 271.3416 212.5280 14.57362176883890"}}, "geometry": {"type": "Point", "coordinates": [-38.08809734509962, 55.15268331019464]}}, {"type": "Feature", "properties": {"norad_id": 34689, "name": "COSMOS 2251 DEB", "group": "cosmos-2251-debris", "lat": -73.98345497946804, "lon": 155.76439099940515, "alt_km": 753.9832807696912, "timestamp": "2025-12-03T13:52:09.961788+00:00", "meta": {"OBJECT_NAME": "COSMOS 2251 DEB", "OBJECT_ID": "1993-036YK", "EPOCH": "2025-12-01T04:52:05.077056", "MEAN_MOTION": 14.04150485, "ECCENTRICITY": 0.0229843, "INCLINATION": 74.0888, "RA_OF_ASC_NODE": 243.4543, "ARG_OF_PERICENTER": 314.8144, "MEAN_ANOMALY": 197.2792, "EPHEMERIS_TYPE": 0, "CLASSIFICATION_TYPE": "U", "NORAD_CAT_ID": 34689, "ELEMENT_SET_NO": 999, "REV_AT_EPOCH": 84179, "BSTAR": 0.0056499, "MEAN_MOTION_DOT": 0.00011323, "MEAN_MOTION_DDOT": 0}, "tle": {"line1": "1 34689U 93036YK  25335.20283654  .00011323  00000+0  56499-2 0  9993", "line2": "2 34689  74.0888 243.4543 0229843 314.8144 197.2792 14.04150485841793"}}, "geometry": {"type": "Point", "coordinates": [155.76439099940515, -73.98345497946804]}}, {"type": "Feature", "properties": {"norad_id": 34721, "name": "COSMOS 2251 DEB", "group": "cosmos-2251-debris", "lat": -8.583300436007079, "lon": 164.64118634215313, "alt_km": 915.9763966906257, "timestamp": "2025-12-03T13:52:09.961799+00:00", "meta": {"OBJECT_NAME": "COSMOS 2251 DEB", "OBJECT_ID": "1993-036YP", "EPOCH": "2025-12-02T07:48:06.027264", "MEAN_MOTION": 13.96762831, "ECCENTRICITY": 0.022397, "INCLINATION": 73.9234, "RA_OF_ASC_NODE": 344.3187, "ARG_OF_PERICENTER": 285.1168, "MEAN_ANOMALY": 89.0422, "EPHEMERIS_TYPE": 0, "CLASSIFICATION_TYPE": "U", "NORAD_CAT_ID": 34721, "ELEMENT_SET_NO": 999, "REV_AT_EPOCH": 85004, "BSTAR": 0.0021289, "MEAN_MOTION_DOT": 3.628e-05, "MEAN_MOTION_DDOT": 0}, "tle": {"line1": "1 34721U 93036YP  25336.32506976  .00003628  00000+0  21289-2 0  9997", "line2": "2 34721  73.9234 344.3187 0223970 285.1168  89.0422 13.96762831850049"}}, "geometry": {"type": "Point", "coordinates": [164.64118634215313, -8.583300436007079]}}, {"type": "Feature", "properties": {"norad_id": 34722, "name": "COSMOS 2251 DEB", "group": "cosmos-2251-debris", "lat": -71.31221027212452, "lon": -66.39962314004221, "alt_km": 738.7316668704707, "timestamp": "2025-12-03T13:52:09.961809+00:00", "meta": {"OBJECT_NAME": "COSMOS 2251 DEB", "OBJECT_ID": "1993-036YQ", "EPOCH": "2025-12-03T07:31:01.943616", "MEAN_MOTION": 14.11882885, "ECCENTRICITY": 0.01674951, "INCLINATION": 73.8718, "RA_OF_ASC_NODE": 352.8819, "ARG_OF_PERICENTER": 280.0573, "MEAN_ANOMALY": 94.7459, "EPHEMERIS_TYPE": 0, "CLASSIFICATION_TYPE": "U", "NORAD_CAT_ID": 34722, "ELEMENT_SET_NO": 999, "REV_AT_EPOCH": 86112, "BSTAR": 0.0011611512, "MEAN_MOTION_DOT": 2.394e-05, "MEAN_MOTION_DDOT": 0}, "tle": {"line1": "1 34722U 93036YQ  25337.31321694  .00002394  00000+0  11612-2 0  9998", "line2": "2 34722  73.8718 352.8819 0167495 280.0573  94.7459 14.11882885861129"}}, "geometry": {"type": "Point", "coordinates": [-66.39962314004221, -71.31221027212452]}}, {"type": "Feature", "properties": {"norad_id": 34726, "name": "COSMOS 2251 DEB", "group": "cosmos-2251-debris", "lat": -1.546299989716546, "lon": -175.75554569113305, "alt_km": 670.4100344030403, "timestamp": "2025-12-03T13:52:09.961820+00:00", "meta": {"OBJECT_NAME": "COSMOS 2251 DEB", "OBJECT_ID": "1993-036YU", "EPOCH": "2025-12-03T01:31:34.212288", "MEAN_MOTION": 14.59421635, "ECCENTRICITY": 0.00425024, "INCLINATION": 74.0292, "RA_OF_ASC_NODE": 4.782, "ARG_OF_PERICENTER": 158.4763, "MEAN_ANOMALY": 201.8202, "EPHEMERIS_TYPE": 0, "CLASSIFICATION_TYPE": "U", "NORAD_CAT_ID": 34726, "ELEMENT_SET_NO": 999, "REV_AT_EPOCH": 88361, "BSTAR": 0.0005370053, "MEAN_MOTION_DOT": 2.547e-05, "MEAN_MOTION_DDOT": 0}, "tle": {"line1": "1 34726U 93036YU  25337.06359042  .00002547  00000+0  53701-3 0  9998", "line2": "2 34726  74.0292   4.7820 0042502 158.4763 201.8202 14.59421635883617"}}, "geometry": {"type": "Point", "coordinates": [-175.75554569113305, -1.546299989716546]}}, {"type": "Feature", "properties": {"norad_id": 34728, "name": "COSMOS 2251 DEB", "group": "cosmos-2251-debris", "lat": 43.77541552605325, "lon": -74.48703821329144, "alt_km": 628.5962998916038, "timestamp": "2025-12-03T13:52:09.961830+00:00", "meta": {"OBJECT_NAME": "COSMOS 2251 DEB", "OBJECT_ID": "1993-036YW", "EPOCH": "2025-12-03T02:14:02.628672", "MEAN_MOTION": 14.70683723, "ECCENTRICITY": 0.0040693, "INCLINATION": 74.0187, "RA_OF_ASC_NODE": 270.5171, "ARG_OF_PERICENTER": 70.8224, "MEAN_ANOMALY": 289.7344, "EPHEMERIS_TYPE": 0, "CLASSIFICATION_TYPE": "U", "NORAD_CAT_ID": 34728, "ELEMENT_SET_NO": 999, "REV_AT_EPOCH": 88658, "BSTAR": 0.0010464414, "MEAN_MOTION_DOT": 6.43e-05, "MEAN_MOTION_DDOT": 0}, "tle": {"line1": "1 34728U 93036YW  25337.09308598  .00006430  00000+0  10464-2 0  9996", "line2": "2 34728  74.0187 270.5171 0040693  70.8224 289.7344 14.70683723886584"}}, "geometry": {"type": "Point", "coordinates": [-74.48703821329144, 43.77541552605325]}}, {"type": "Feature", "properties": {"norad_id": 34729, "name": "COSMOS 2251 DEB", "group": "cosmos-2251-debris", "lat": 28.848823760635405, "lon": 25.65602019572008, "alt_km": 623.3003346900796, "timestamp": "2025-12-03T13:52:09.961841+00:00", "meta": {"OBJECT_NAME": "COSMOS 2251 DEB", "OBJECT_ID": "1993-036YX", "EPOCH": "2025-12-03T04:16:12.936864", "MEAN_MOTION": 14.82353988, "ECCENTRICITY": 0.00122597, "INCLINATION": 74.0191, "RA_OF_ASC_NODE": 17.3642, "ARG_OF_PERICENTER": 142.4886, "MEAN_ANOMALY": 274.3437, "EPHEMERIS_TYPE": 0, "CLASSIFICATION_TYPE": "U", "NORAD_CAT_ID": 34729, "ELEMENT_SET_NO": 999, "REV_AT_EPOCH": 88316, "BSTAR": 0.0023532273, "MEAN_MOTION_DOT": 0.00018876, "MEAN_MOTION_DDOT": 0}, "tle": {"line1": "1 34729U 93036YX  25337.17792751  .00018876  00000+0  23532-2 0  9991", "line2": "2 34729  74.0191  17.3642 0012259 142.4886 274.3437 14.82353988883161"}}, "geometry": {"type": "Point", "coordinates": [25.65602019572008, 28.848823760635405]}}]}